{
    "links": {
        "self": "http://www.neowsapp.com/rest/v1/neo/3838036?api_key=iIulBulltgU6a56xZRHN4H3l9WmuAYTsLGpBGhQ2"
    },
    "id": "3838036",
    "neo_reference_id": "3838036",
    "name": "(2019 BS3)",
    "designation": "2019 BS3",
    "nasa_jpl_url": "http://ssd.jpl.nasa.gov/sbdb.cgi?sstr=3838036",
    "absolute_magnitude_h": 24.2,
    "estimated_diameter": {
        "kilometers": {
            "estimated_diameter_min": 0.0384197891,
            "estimated_diameter_max": 0.0859092601
        },
        "meters": {
            "estimated_diameter_min": 38.4197891064,
            "estimated_diameter_max": 85.9092601232
        },
        "miles": {
            "estimated_diameter_min": 0.0238729428,
            "estimated_diameter_max": 0.0533815229
        },
        "feet": {
            "estimated_diameter_min": 126.0491808919,
            "estimated_diameter_max": 281.8545369825
        }
    },
    "is_potentially_hazardous_asteroid": false,
    "close_approach_data": [
        {
            "close_approach_date": "2019-01-26",
            "close_approach_date_full": "2019-Jan-26 02:24",
            "epoch_date_close_approach": 1548469440000,
            "relative_velocity": {
                "kilometers_per_second": "32.5508030723",
                "kilometers_per_hour": "117182.8910602782",
                "miles_per_hour": "72812.8913924268"
            },
            "miss_distance": {
                "astronomical": "0.1370974517",
                "lunar": "53.3309087113",
                "kilometers": "20509486.756747879",
                "miles": "12744004.1233195702"
            },
            "orbiting_body": "Earth"
        }
    ],
    "orbital_data": {
        "orbit_id": "2",
        "orbit_determination_date": "2020-09-11 07:42:13",
        "first_observation_date": "2019-01-17",
        "last_observation_date": "2019-01-29",
        "data_arc_in_days": 12,
        "observations_used": 23,
        "orbit_uncertainty": "9",
        "minimum_orbit_intersection": ".136856",
        "jupiter_tisserand_invariant": "3.573",
        "epoch_osculation": "2458509.5",
        "eccentricity": ".4131058881197369",
        "semi_major_axis": "1.690988659761785",
        "inclination": "61.48434781306535",
        "ascending_node_longitude": "126.9745445453649",
        "orbital_period": "803.173682455622",
        "perihelion_distance": ".9924312876704893",
        "perihelion_argument": "306.032832114898",
        "aphelion_distance": "2.389546031853081",
        "perihelion_time": "2458462.269536772765",
        "mean_anomaly": "21.16972596738946",
        "mean_motion": ".4482218576925187",
        "equinox": "J2000",
        "orbit_class": {
            "orbit_class_type": "APO",
            "orbit_class_description": "Near-Earth asteroid orbits which cross the Earth’s orbit similar to that of 1862 Apollo",
            "orbit_class_range": "a (semi-major axis) > 1.0 AU; q (perihelion) < 1.017 AU"
        }
    },
    "is_sentry_object": false
}